NUSHSAT1                
1 63211U 25052B   26068.64700493  .00023034  00000+0  74857-3 0  9997
2 63211  97.4095 325.7239 0005501  84.7512 275.4357 15.31903202 54882
STARLINK-34772          
1 65020U 25161F   26068.84041188  .00027179  00000+0  92599-3 0  9996
2 65020  53.1570 293.4520 0000838 108.4663 251.6429 15.30214575 35468
